{"type": "FeatureCollection", "features": [ {"type": "Feature", "properties": {"norad_id": 47025, "name": "FENGYUN 1C DEB", "group": "fengyun-1c-debris", "lat": -28.02701877871324, "lon": -170.838598679171, "alt_km": 725.608295291323, "timestamp": "2025-12-04T07:39:36.424673+00:00", "meta": {"OBJECT_NAME": "FENGYUN 1C DEB", "OBJECT_ID": "1999-025FBB", "EPOCH": "2025-12-02T01:41:08.457792", "MEAN_MOTION": 14.46038389, "ECCENTRICITY": 0.00405714, "INCLINATION": 99.0334, "RA_OF_ASC_NODE": 181.9095, "ARG_OF_PERICENTER": 28.306, "MEAN_ANOMALY": 122.9233, "EPHEMERIS_TYPE": 0, "CLASSIFICATION_TYPE": "U", "NORAD_CAT_ID": 47025, "ELEMENT_SET_NO": 999, "REV_AT_EPOCH": 62587, "BSTAR": 0.0023139931, "MEAN_MOTION_DOT": 8.293e-05, "MEAN_MOTION_DDOT": 0}, "tle": {"line1": "1 47025U 99025FBB 25336.07023678  .00008293  00000+0  23140-2 0  9998", "line2": "2 47025  99.0334 181.9095 0040571  28.3060 122.9233 14.46038389625873"}}, "geometry": {"type": "Point", "coordinates": [-170.838598679171, -28.02701877871324]}}, {"type": "Feature", "properties": {"norad_id": 47036, "name": "FENGYUN 1C DEB", "group": "fengyun-1c-debris", "lat": -6.693364211858107, "lon": 22.952075851583064, "alt_km": 875.7927909518012, "timestamp": "2025-12-04T07:39:36.424683+00:00", "meta": {"OBJECT_NAME": "FENGYUN 1C DEB", "OBJECT_ID": "1999-025FBN", "EPOCH": "2025-12-02T22:20:16.253088", "MEAN_MOTION": 14.15166678, "ECCENTRICITY": 0.00686917, "INCLINATION": 98.7236, "RA_OF_ASC_NODE": 20.5619, "ARG_OF_PERICENTER": 125.2896, "MEAN_ANOMALY": 359.1571, "EPHEMERIS_TYPE": 0, "CLASSIFICATION_TYPE": "U", "NORAD_CAT_ID": 47036, "ELEMENT_SET_NO": 999, "REV_AT_EPOCH": 59788, "BSTAR": 0.00019399927, "MEAN_MOTION_DOT": 3.43e-06, "MEAN_MOTION_DDOT": 0}, "tle": {"line1": "1 47036U 99025FBN 25336.93074367  .00000343  00000+0  19400-3 0  9999", "line2": "2 47036  98.7236  20.5619 0068691 125.2896 359.1571 14.15166678597886"}}, "geometry": {"type": "Point", "coordinates": [22.952075851583064, -6.693364211858107]}}, {"type": "Feature", "properties": {"norad_id": 47040, "name": "FENGYUN 1C DEB", "group": "fengyun-1c-debris", "lat": 41.64803405808875, "lon": -125.36441827304962, "alt_km": 906.3161652587041, "timestamp": "2025-12-04T07:39:36.424692+00:00", "meta": {"OBJECT_NAME": "FENGYUN 1C DEB", "OBJECT_ID": "1999-025FBS", "EPOCH": "2025-12-03T10:58:10.539552", "MEAN_MOTION": 14.06462065, "ECCENTRICITY": 0.0063058, "INCLINATION": 100.2943, "RA_OF_ASC_NODE": 242.958, "ARG_OF_PERICENTER": 257.8027, "MEAN_ANOMALY": 101.6069, "EPHEMERIS_TYPE": 0, "CLASSIFICATION_TYPE": "U", "NORAD_CAT_ID": 47040, "ELEMENT_SET_NO": 999, "REV_AT_EPOCH": 88978, "BSTAR": 0.0008721929, "MEAN_MOTION_DOT": 1.412e-05, "MEAN_MOTION_DDOT": 0}, "tle": {"line1": "1 47040U 99025FBS 25337.45706643  .00001412  00000+0  87219-3 0  9992", "line2": "2 47040 100.2943 242.9580 0063058 257.8027 101.6069 14.06462065889786"}}, "geometry": {"type": "Point", "coordinates": [-125.36441827304962, 41.64803405808875]}}, {"type": "Feature", "properties": {"norad_id": 47041, "name": "FENGYUN 1C DEB", "group": "fengyun-1c-debris", "lat": 13.655635062717138, "lon": -173.74392175488418, "alt_km": 541.9708994803941, "timestamp": "2025-12-04T07:39:36.424701+00:00", "meta": {"OBJECT_NAME": "FENGYUN 1C DEB", "OBJECT_ID": "1999-025FBT", "EPOCH": "2025-12-02T20:37:47.337024", "MEAN_MOTION": 15.06224459, "ECCENTRICITY": 0.00145278, "INCLINATION": 98.2564, "RA_OF_ASC_NODE": 2.6715, "ARG_OF_PERICENTER": 220.399, "MEAN_ANOMALY": 315.8837, "EPHEMERIS_TYPE": 0, "CLASSIFICATION_TYPE": "U", "NORAD_CAT_ID": 47041, "ELEMENT_SET_NO": 999, "REV_AT_EPOCH": 71040, "BSTAR": 0.0025565732, "MEAN_MOTION_DOT": 0.00037681, "MEAN_MOTION_DDOT": 0}, "tle": {"line1": "1 47041U 99025FBT 25336.85957566  .00037681  00000+0  25566-2 0  9991", "line2": "2 47041  98.2564   2.6715 0014527 220.3990 315.8837 15.06224459710402"}}, "geometry": {"type": "Point", "coordinates": [-173.74392175488418, 13.655635062717138]}}, {"type": "Feature", "properties": {"norad_id": 47042, "name": "FENGYUN 1C DEB", "group": "fengyun-1c-debris", "lat": -40.28448775365422, "lon": 47.92036433325018, "alt_km": 860.3768941143335, "timestamp": "2025-12-04T07:39:36.424710+00:00", "meta": {"OBJECT_NAME": "FENGYUN 1C DEB", "OBJECT_ID": "1999-025FBU", "EPOCH": "2025-12-02T22:50:44.179872", "MEAN_MOTION": 14.22815893, "ECCENTRICITY": 0.00555195, "INCLINATION": 99.0007, "RA_OF_ASC_NODE": 234.2444, "ARG_OF_PERICENTER": 62.265, "MEAN_ANOMALY": 358.9067, "EPHEMERIS_TYPE": 0, "CLASSIFICATION_TYPE": "U", "NORAD_CAT_ID": 47042, "ELEMENT_SET_NO": 999, "REV_AT_EPOCH": 62382, "BSTAR": 0.00035803178, "MEAN_MOTION_DOT": 7.7e-06, "MEAN_MOTION_DDOT": 0}, "tle": {"line1": "1 47042U 99025FBU 25336.95190023  .00000770  00000+0  35803-3 0  9995", "line2": "2 47042  99.0007 234.2444 0055519  62.2650 358.9067 14.22815893623825"}}, "geometry": {"type": "Point", "coordinates": [47.92036433325018, -40.28448775365422]}}, {"type": "Feature", "properties": {"norad_id": 47100, "name": "FENGYUN 1C DEB", "group": "fengyun-1c-debris", "lat": -23.718953607493717, "lon": -26.769725332140176, "alt_km": 790.3760666288717, "timestamp": "2025-12-04T07:39:36.424720+00:00", "meta": {"OBJECT_NAME": "FENGYUN 1C DEB", "OBJECT_ID": "1999-025FBY", "EPOCH": "2025-12-03T10:52:03.526176", "MEAN_MOTION": 14.51196721, "ECCENTRICITY": 0.00894055, "INCLINATION": 99.0203, "RA_OF_ASC_NODE": 156.3037, "ARG_OF_PERICENTER": 21.5255, "MEAN_ANOMALY": 338.9659, "EPHEMERIS_TYPE": 0, "CLASSIFICATION_TYPE": "U", "NORAD_CAT_ID": 47100, "ELEMENT_SET_NO": 999, "REV_AT_EPOCH": 26633, "BSTAR": 0.0023662184, "MEAN_MOTION_DOT": 9.855e-05, "MEAN_MOTION_DDOT": 0}, "tle": {"line1": "1 47100U 99025FBY 25337.45281859  .00009855  00000+0  23662-2 0  9996", "line2": "2 47100  99.0203 156.3037 0089405  21.5255 338.9659 14.51196721266338"}}, "geometry": {"type": "Point", "coordinates": [-26.769725332140176, -23.718953607493717]}}, {"type": "Feature", "properties": {"norad_id": 47104, "name": "FENGYUN 1C DEB", "group": "fengyun-1c-debris", "lat": 22.7226948031303, "lon": 4.057837976259453, "alt_km": 799.1821713921736, "timestamp": "2025-12-04T07:39:36.424729+00:00", "meta": {"OBJECT_NAME": "FENGYUN 1C DEB", "OBJECT_ID": "1999-025FCC", "EPOCH": "2025-12-03T07:52:04.755648", "MEAN_MOTION": 14.19412499, "ECCENTRICITY": 0.0041412, "INCLINATION": 98.9139, "RA_OF_ASC_NODE": 6.829, "ARG_OF_PERICENTER": 4.0939, "MEAN_ANOMALY": 356.0568, "EPHEMERIS_TYPE": 0, "CLASSIFICATION_TYPE": "U", "NORAD_CAT_ID": 47104, "ELEMENT_SET_NO": 999, "REV_AT_EPOCH": 62239, "BSTAR": 0.00032102, "MEAN_MOTION_DOT": 6.36e-06, "MEAN_MOTION_DDOT": 0}, "tle": {"line1": "1 47104U 99025FCC 25337.32783282  .00000636  00000+0  32102-3 0  9991", "line2": "2 47104  98.9139   6.8290 0041412   4.0939 356.0568 14.19412499622398"}}, "geometry": {"type": "Point", "coordinates": [4.057837976259453, 22.7226948031303]}}]}